{
  "norad_id": 57507,
  "name": "STARLINK-30219",
  "history": [
    {
      "epoch": "2026-03-28T19:46:09.770016Z",
      "apogee_km": 474.2417101077717,
      "perigee_km": 470.81281563092034,
      "latitude_deg": -2.0548706299850122e-05,
      "longitude_deg": 145.90023418079693,
      "height_km": 472.5122653604829,
      "semi_major_axis_km": 6850.664262869345,
      "eccentricity": 0.00025026,
      "inclination_deg": 43.0015,
      "raan_deg": 268.6796,
      "arg_perigee_deg": 263.042,
      "mean_anomaly_deg": 97.0148,
      "mean_motion_rev_day": 15.31100632
    },
    {
      "epoch": "2026-03-30T04:38:53.918304Z",
      "apogee_km": 474.23895996379724,
      "perigee_km": 470.8354080157078,
      "latitude_deg": -5.667821657158168e-05,
      "longitude_deg": 3.5883554423632393,
      "height_km": 472.6465762827322,
      "semi_major_axis_km": 6850.674183989752,
      "eccentricity": 0.00024841,
      "inclination_deg": 43.0034,
      "raan_deg": 260.902,
      "arg_perigee_deg": 258.7529,
      "mean_anomaly_deg": 101.3044,
      "mean_motion_rev_day": 15.31097306
    },
    {
      "epoch": "2026-03-30T10:54:39.819456Z",
      "apogee_km": 474.1822040056286,
      "perigee_km": 470.9171667313831,
      "latitude_deg": -1.6036027848251886e-05,
      "longitude_deg": -92.08915773564298,
      "height_km": 472.16255462462914,
      "semi_major_axis_km": 6850.686685368506,
      "eccentricity": 0.0002383,
      "inclination_deg": 43.0028,
      "raan_deg": 259.4229,
      "arg_perigee_deg": 275.7854,
      "mean_anomaly_deg": 84.2727,
      "mean_motion_rev_day": 15.31093115
    },
    {
      "epoch": "2026-03-30T20:18:18.459072Z",
      "apogee_km": 474.21639149734983,
      "perigee_km": 470.91394201084404,
      "latitude_deg": 4.045830832931181e-06,
      "longitude_deg": 124.39066512586372,
      "height_km": 472.27740616475273,
      "semi_major_axis_km": 6850.702166754097,
      "eccentricity": 0.00024103,
      "inclination_deg": 43.0025,
      "raan_deg": 257.1995,
      "arg_perigee_deg": 272.2619,
      "mean_anomaly_deg": 87.7958,
      "mean_motion_rev_day": 15.31087925
    }
  ]
}